OBJECT_NAME,OBJECT_ID,EPOCH,MEAN_MOTION,ECCENTRICITY,INCLINATION,RA_OF_ASC_NODE,ARG_OF_PERICENTER,MEAN_ANOMALY,EPHEMERIS_TYPE,CLASSIFICATION_TYPE,NORAD_CAT_ID,ELEMENT_SET_NO,REV_AT_EPOCH,BSTAR,MEAN_MOTION_DOT,MEAN_MOTION_DDOT
H-2A R/B,2006-002B,2026-06-15T03:25:54.903648,15.18037657,.00495593,98.2556,321.7868,269.4517,90.1035,0,U,28932,999,10921,.24821571E-3,.5131E-4,0
RESURS-DK 1,2006-021A,2026-06-15T06:00:49.316256,15.13211435,.00068536,69.9340,344.5658,293.2634,66.7810,0,U,29228,999,10228,.12907508E-3,.219E-4,0
CZ-4B R/B,2006-046C,2026-06-15T01:51:13.780512,15.17770657,.00310286,97.5453,210.6906,290.4150,69.3752,0,U,29507,999,7481,.19205799E-3,.3856E-4,0
CZ-2C R/B,2007-010B,2026-06-15T07:10:08.968224,14.20275848,.00591352,98.4096,274.7419,11.6203,348.6324,0,U,31114,999,99357,.47362526E-4,.62E-6,0
COSMO-SKYMED 1,2007-023A,2026-06-15T07:55:46.616160,14.97090735,.00011661,97.8839,358.1706,98.8041,261.3312,0,U,31598,999,2951,.18989049E-3,.213E-4,0
COSMOS 2428,2007-029A,2026-06-15T05:34:21.790560,14.12928445,.00071488,70.9370,358.5825,138.6529,221.5134,0,U,31792,999,97787,-.40995134E-4,-.124E-5,0
SL-16 R/B,2007-029B,2026-06-15T05:20:17.537280,14.14854346,.0002286,70.9768,327.3585,261.5112,270.9118,0,U,31793,999,97916,.11888783E-3,.182E-5,0
KORONAS-FOTON,2009-003A,2026-06-15T06:22:48.490464,15.45689262,.00115,82.4280,174.2636,153.7338,206.4496,0,U,33504,999,96080,.16580583E-3,.8058E-4,0
CZ-2C R/B,2011-030B,2026-06-15T03:22:24.117024,14.81466962,.00532082,97.8655,121.5635,34.5157,337.3971,0,U,37731,999,80452,.14922527E-3,.1143E-4,0
H-2A R/B,2012-025E,2026-06-14T22:46:58.723392,14.95708869,.0043783,98.4826,140.9104,356.7043,3.3881,0,U,38341,999,76275,.2937E-3,.3262E-4,0
SHIJIAN-16 (SJ-16),2013-057A,2026-06-15T07:05:40.252992,14.92602906,.00168346,74.9728,0.2666,235.1994,124.7611,0,U,39358,999,68606,.85760893E-4,.855E-5,0
SL-4 R/B,2014-021B,2026-06-15T07:32:06.375552,15.41921117,.00913329,51.6036,219.9491,99.1417,261.9914,0,U,39679,999,67132,.16716063E-3,.7929E-4,0
ALOS-2,2014-029A,2026-06-15T05:53:26.539584,14.79467289,.00016642,97.9222,263.4362,92.6302,267.5100,0,U,39766,999,65129,.22292079E-3,.1614E-4,0
YAOGAN-29,2015-069A,2026-06-15T08:32:53.430144,14.83082470,.00026649,98.0027,194.9859,57.0333,303.1136,0,U,41038,999,57035,.15903398E-4,.75E-6,0
ASTRO-H (HITOMI),2016-012A,2026-06-14T23:39:29.445408,15.10502589,.00097644,30.9993,88.4041,231.8970,128.0788,0,U,41337,999,56695,.13127652E-3,.2314E-4,0
HXMT (HUIYAN),2017-034A,2026-06-15T07:01:16.128192,15.18467950,.00304078,43.0126,193.5911,134.7573,225.5757,0,U,42758,999,49737,.13717411E-3,.2665E-4,0
SAOCOM 1A,2018-076A,2026-06-15T05:53:51.300960,14.82146210,.00015886,97.8877,353.0228,77.9423,282.1968,0,U,43641,999,41581,.53448E-7,-.52E-6,0
H-2A R/B,2018-084L,2026-06-15T06:00:16.838496,15.45089472,.0023688,98.8583,44.7175,47.0203,313.3022,0,U,43682,999,42082,.34112855E-3,.16197E-3,0
SAOCOM 1B,2020-059A,2026-06-15T06:38:45.183840,14.82208879,.00013091,97.8879,352.1481,84.2020,275.9343,0,U,46265,999,31320,.81563699E-4,.598E-5,0
CSS (TIANHE),2021-035A,2026-06-15T05:59:05.803008,15.60733648,.00075623,41.4695,333.7940,61.5785,298.5815,0,U,48274,999,29286,.22891853E-3,.19313E-3,0
COSMOS 2550,2021-056A,2026-06-15T06:19:24.348000,15.33835009,.00084096,67.1431,105.7247,268.1274,91.8917,0,U,48865,999,27842,.1343129E-3,.423E-4,0
CZ-2C R/B,2022-058K,2026-06-14T17:55:29.611200,15.61696583,.00325778,50.1832,176.2150,257.8533,101.8791,0,U,52794,999,22526,.37204522E-3,.33243E-3,0
CZ-2C R/B,2022-132E,2026-06-14T23:41:43.126080,15.71278159,.00163233,97.2893,172.9134,91.2297,269.0836,0,U,54039,999,20560,.43103789E-3,.55094E-3,0
GSLV R/B,2022-138AN,2026-06-14T23:29:51.767232,14.97247490,.00225591,87.3800,133.7255,151.0567,209.1922,0,U,54149,999,19848,.22987588E-3,.2703E-4,0
XRISM,2023-137A,2026-06-14T22:43:24.893760,15.12448733,.00079677,31.0032,14.1135,301.5988,58.3873,0,U,57800,999,15252,.25816333E-3,.4701E-4,0
ACS3,2024-077B,2026-06-14T14:54:47.943072,13.93844822,.00689894,97.1678,84.9820,65.3065,295.5264,0,U,59588,999,10768,.58459193E-2,.784E-4,0
CZ-8A R/B,2025-231K,2026-06-14T22:56:22.731360,14.30154406,.011647,50.0056,48.8094,216.1507,143.1495,0,U,66004,999,3462,.37229E-4,-.59E-6,0
SZ-21 MODULE,2025-246C,2026-06-13T17:32:52.137600,15.76117488,.00067511,41.4731,328.8460,328.3391,31.7047,0,U,66515,999,3319,.28446481E-3,.45764E-3,0
